STARLINK-35529          
1 66259U 25245AB  25322.50002315 -.01997317  00000+0 -27977-1 0  9997
2 66259  53.1599  84.1649 0001487  71.2962 130.6091 15.59672226  4213
STARLINK-35420          
1 66260U 25245AC  25322.50002315 -.02000973  00000+0 -28033-1 0  9997
2 66260  53.1599  84.1688 0001450  73.7499 126.2374 15.59674883  4216
STARLINK-35536          
1 66261U 25245AD  25322.50002315 -.02004164  00000+0 -28084-1 0  9990
2 66261  53.1599  84.1610 0001346  71.4324 132.3872 15.59675924  4216
STARLINK-35487          
1 66262U 25245AE  25322.50002315 -.01998268  00000+0 -27991-1 0  9993
2 66262  53.1599  84.1567 0001379  70.8806 134.8532 15.59674527  4164
STARLINK-35801          
1 66265U 25247A   25322.50002315 -.01865485  00000+0 -34050-1 0  9996
2 66265  53.1597 352.0721 0001089  73.4363 207.8394 15.52355683  3729
STARLINK-35056          
1 66266U 25247B   25322.50002315 -.01926827  00000+0 -34607-1 0  9993
2 66266  53.1589 352.0679 0001031  84.7122 198.4776 15.52362038  3998
STARLINK-35550          
1 66267U 25247C   25322.50002315 -.01998676  00000+0 -25104-1 0  9997
2 66267  53.1592 351.0612 0001300  57.4028 353.5777 15.62473991  3661
STARLINK-35069          
1 66268U 25247D   25322.50002315 -.01886325  00000+0 -34472-1 0  9993
2 66268  53.1589 352.0546 0000714  70.9864 217.9527 15.52366588  3940
STARLINK-34910          
1 66269U 25247E   25322.50002315 -.01995504  00000+0 -25060-1 0  9997
2 66269  53.1595 351.0648 0001349  65.4044 343.6606 15.62472007  3999
STARLINK-35757          
1 66270U 25247F   25322.50002315 -.01855391  00000+0 -33848-1 0  9991
2 66270  53.1593 352.0524 0000894  65.5574 225.3008 15.52352216  4043
STARLINK-35745          
1 66271U 25247G   25322.50002315 -.01858568  00000+0 -33911-1 0  9992
2 66271  53.1594 352.0475 0000838  64.5269 228.2486 15.52354822  4045
STARLINK-35741          
1 66272U 25247H   25322.50002315 -.01865806  00000+0 -34061-1 0  9993
2 66272  53.1590 352.0429 0001036  60.0405 234.6551 15.52352214  4042
