CCSDS_OMM_VERS = 2.0
CREATION_DATE  = 
ORIGINATOR     = 

OBJECT_NAME    = STARLINK-35529
OBJECT_ID      = 2025-245AB
CENTER_NAME    = EARTH
REF_FRAME      = TEME
TIME_SYSTEM    = UTC
MEAN_ELEMENT_THEORY = SGP/SGP4

EPOCH          = 2025-11-18T12:00:02.000160
MEAN_MOTION    = 15.59672226
ECCENTRICITY   = .0001487
INCLINATION    = 53.1599
RA_OF_ASC_NODE = 84.1649
ARG_OF_PERICENTER = 71.2962
MEAN_ANOMALY   = 130.6091

EPHEMERIS_TYPE = 0
CLASSIFICATION_TYPE = U
NORAD_CAT_ID   = 66259
ELEMENT_SET_NO = 999
REV_AT_EPOCH   = 421
BSTAR          = -.27977E-1
MEAN_MOTION_DOT = -.1997317E-1
MEAN_MOTION_DDOT = 0

CCSDS_OMM_VERS = 2.0
CREATION_DATE  = 
ORIGINATOR     = 

OBJECT_NAME    = STARLINK-35420
OBJECT_ID      = 2025-245AC
CENTER_NAME    = EARTH
REF_FRAME      = TEME
TIME_SYSTEM    = UTC
MEAN_ELEMENT_THEORY = SGP/SGP4

EPOCH          = 2025-11-18T12:00:02.000160
MEAN_MOTION    = 15.59674883
ECCENTRICITY   = .000145
INCLINATION    = 53.1599
RA_OF_ASC_NODE = 84.1688
ARG_OF_PERICENTER = 73.7499
MEAN_ANOMALY   = 126.2374

EPHEMERIS_TYPE = 0
CLASSIFICATION_TYPE = U
NORAD_CAT_ID   = 66260
ELEMENT_SET_NO = 999
REV_AT_EPOCH   = 421
BSTAR          = -.28033E-1
MEAN_MOTION_DOT = -.2000973E-1
MEAN_MOTION_DDOT = 0

CCSDS_OMM_VERS = 2.0
CREATION_DATE  = 
ORIGINATOR     = 

OBJECT_NAME    = STARLINK-35536
OBJECT_ID      = 2025-245AD
CENTER_NAME    = EARTH
REF_FRAME      = TEME
TIME_SYSTEM    = UTC
MEAN_ELEMENT_THEORY = SGP/SGP4

EPOCH          = 2025-11-18T12:00:02.000160
MEAN_MOTION    = 15.59675924
ECCENTRICITY   = .0001346
INCLINATION    = 53.1599
RA_OF_ASC_NODE = 84.1610
ARG_OF_PERICENTER = 71.4324
MEAN_ANOMALY   = 132.3872

EPHEMERIS_TYPE = 0
CLASSIFICATION_TYPE = U
NORAD_CAT_ID   = 66261
ELEMENT_SET_NO = 999
REV_AT_EPOCH   = 421
BSTAR          = -.28084E-1
MEAN_MOTION_DOT = -.2004164E-1
MEAN_MOTION_DDOT = 0

CCSDS_OMM_VERS = 2.0
CREATION_DATE  = 
ORIGINATOR     = 

OBJECT_NAME    = STARLINK-35487
OBJECT_ID      = 2025-245AE
CENTER_NAME    = EARTH
REF_FRAME      = TEME
TIME_SYSTEM    = UTC
MEAN_ELEMENT_THEORY = SGP/SGP4

EPOCH          = 2025-11-18T12:00:02.000160
MEAN_MOTION    = 15.59674527
ECCENTRICITY   = .0001379
INCLINATION    = 53.1599
RA_OF_ASC_NODE = 84.1567
ARG_OF_PERICENTER = 70.8806
MEAN_ANOMALY   = 134.8532

EPHEMERIS_TYPE = 0
CLASSIFICATION_TYPE = U
NORAD_CAT_ID   = 66262
ELEMENT_SET_NO = 999
REV_AT_EPOCH   = 416
BSTAR          = -.27991E-1
MEAN_MOTION_DOT = -.1998268E-1
MEAN_MOTION_DDOT = 0

CCSDS_OMM_VERS = 2.0
CREATION_DATE  = 
ORIGINATOR     = 

OBJECT_NAME    = STARLINK-35801
OBJECT_ID      = 2025-247A
CENTER_NAME    = EARTH
REF_FRAME      = TEME
TIME_SYSTEM    = UTC
MEAN_ELEMENT_THEORY = SGP/SGP4

EPOCH          = 2025-11-18T12:00:02.000160
MEAN_MOTION    = 15.52355683
ECCENTRICITY   = .0001089
INCLINATION    = 53.1597
RA_OF_ASC_NODE = 352.0721
ARG_OF_PERICENTER = 73.4363
MEAN_ANOMALY   = 207.8394

EPHEMERIS_TYPE = 0
CLASSIFICATION_TYPE = U
NORAD_CAT_ID   = 66265
ELEMENT_SET_NO = 999
REV_AT_EPOCH   = 372
BSTAR          = -.3405E-1
MEAN_MOTION_DOT = -.1865485E-1
MEAN_MOTION_DDOT = 0

CCSDS_OMM_VERS = 2.0
CREATION_DATE  = 
ORIGINATOR     = 

OBJECT_NAME    = STARLINK-35056
OBJECT_ID      = 2025-247B
CENTER_NAME    = EARTH
REF_FRAME      = TEME
TIME_SYSTEM    = UTC
MEAN_ELEMENT_THEORY = SGP/SGP4

EPOCH          = 2025-11-18T12:00:02.000160
MEAN_MOTION    = 15.52362038
ECCENTRICITY   = .0001031
INCLINATION    = 53.1589
RA_OF_ASC_NODE = 352.0679
ARG_OF_PERICENTER = 84.7122
MEAN_ANOMALY   = 198.4776

EPHEMERIS_TYPE = 0
CLASSIFICATION_TYPE = U
NORAD_CAT_ID   = 66266
ELEMENT_SET_NO = 999
REV_AT_EPOCH   = 399
BSTAR          = -.34607E-1
MEAN_MOTION_DOT = -.1926827E-1
MEAN_MOTION_DDOT = 0

CCSDS_OMM_VERS = 2.0
CREATION_DATE  = 
ORIGINATOR     = 

OBJECT_NAME    = STARLINK-35550
OBJECT_ID      = 2025-247C
CENTER_NAME    = EARTH
REF_FRAME      = TEME
TIME_SYSTEM    = UTC
MEAN_ELEMENT_THEORY = SGP/SGP4

EPOCH          = 2025-11-18T12:00:02.000160
MEAN_MOTION    = 15.62473991
ECCENTRICITY   = .00013
INCLINATION    = 53.1592
RA_OF_ASC_NODE = 351.0612
ARG_OF_PERICENTER = 57.4028
MEAN_ANOMALY   = 353.5777

EPHEMERIS_TYPE = 0
CLASSIFICATION_TYPE = U
NORAD_CAT_ID   = 66267
ELEMENT_SET_NO = 999
REV_AT_EPOCH   = 366
BSTAR          = -.25104E-1
MEAN_MOTION_DOT = -.1998676E-1
MEAN_MOTION_DDOT = 0

CCSDS_OMM_VERS = 2.0
CREATION_DATE  = 
ORIGINATOR     = 

OBJECT_NAME    = STARLINK-35069
OBJECT_ID      = 2025-247D
CENTER_NAME    = EARTH
REF_FRAME      = TEME
TIME_SYSTEM    = UTC
MEAN_ELEMENT_THEORY = SGP/SGP4

EPOCH          = 2025-11-18T12:00:02.000160
MEAN_MOTION    = 15.52366588
ECCENTRICITY   = .0000714
INCLINATION    = 53.1589
RA_OF_ASC_NODE = 352.0546
ARG_OF_PERICENTER = 70.9864
MEAN_ANOMALY   = 217.9527

EPHEMERIS_TYPE = 0
CLASSIFICATION_TYPE = U
NORAD_CAT_ID   = 66268
ELEMENT_SET_NO = 999
REV_AT_EPOCH   = 394
BSTAR          = -.34472E-1
MEAN_MOTION_DOT = -.1886325E-1
MEAN_MOTION_DDOT = 0

CCSDS_OMM_VERS = 2.0
CREATION_DATE  = 
ORIGINATOR     = 

OBJECT_NAME    = STARLINK-34910
OBJECT_ID      = 2025-247E
CENTER_NAME    = EARTH
REF_FRAME      = TEME
TIME_SYSTEM    = UTC
MEAN_ELEMENT_THEORY = SGP/SGP4

EPOCH          = 2025-11-18T12:00:02.000160
MEAN_MOTION    = 15.62472007
ECCENTRICITY   = .0001349
INCLINATION    = 53.1595
RA_OF_ASC_NODE = 351.0648
ARG_OF_PERICENTER = 65.4044
MEAN_ANOMALY   = 343.6606

EPHEMERIS_TYPE = 0
CLASSIFICATION_TYPE = U
NORAD_CAT_ID   = 66269
ELEMENT_SET_NO = 999
REV_AT_EPOCH   = 399
BSTAR          = -.2506E-1
MEAN_MOTION_DOT = -.1995504E-1
MEAN_MOTION_DDOT = 0

CCSDS_OMM_VERS = 2.0
CREATION_DATE  = 
ORIGINATOR     = 

OBJECT_NAME    = STARLINK-35757
OBJECT_ID      = 2025-247F
CENTER_NAME    = EARTH
REF_FRAME      = TEME
TIME_SYSTEM    = UTC
MEAN_ELEMENT_THEORY = SGP/SGP4

EPOCH          = 2025-11-18T12:00:02.000160
MEAN_MOTION    = 15.52352216
ECCENTRICITY   = .0000894
INCLINATION    = 53.1593
RA_OF_ASC_NODE = 352.0524
ARG_OF_PERICENTER = 65.5574
MEAN_ANOMALY   = 225.3008

EPHEMERIS_TYPE = 0
CLASSIFICATION_TYPE = U
NORAD_CAT_ID   = 66270
ELEMENT_SET_NO = 999
REV_AT_EPOCH   = 404
BSTAR          = -.33848E-1
MEAN_MOTION_DOT = -.1855391E-1
MEAN_MOTION_DDOT = 0

CCSDS_OMM_VERS = 2.0
CREATION_DATE  = 
ORIGINATOR     = 

OBJECT_NAME    = STARLINK-35745
OBJECT_ID      = 2025-247G
CENTER_NAME    = EARTH
REF_FRAME      = TEME
TIME_SYSTEM    = UTC
MEAN_ELEMENT_THEORY = SGP/SGP4

EPOCH          = 2025-11-18T12:00:02.000160
MEAN_MOTION    = 15.52354822
ECCENTRICITY   = .0000838
INCLINATION    = 53.1594
RA_OF_ASC_NODE = 352.0475
ARG_OF_PERICENTER = 64.5269
MEAN_ANOMALY   = 228.2486

EPHEMERIS_TYPE = 0
CLASSIFICATION_TYPE = U
NORAD_CAT_ID   = 66271
ELEMENT_SET_NO = 999
REV_AT_EPOCH   = 404
BSTAR          = -.33911E-1
MEAN_MOTION_DOT = -.1858568E-1
MEAN_MOTION_DDOT = 0

CCSDS_OMM_VERS = 2.0
CREATION_DATE  = 
ORIGINATOR     = 

OBJECT_NAME    = STARLINK-35741
OBJECT_ID      = 2025-247H
CENTER_NAME    = EARTH
REF_FRAME      = TEME
TIME_SYSTEM    = UTC
MEAN_ELEMENT_THEORY = SGP/SGP4

EPOCH          = 2025-11-18T12:00:02.000160
MEAN_MOTION    = 15.52352214
ECCENTRICITY   = .0001036
INCLINATION    = 53.1590
RA_OF_ASC_NODE = 352.0429
ARG_OF_PERICENTER = 60.0405
MEAN_ANOMALY   = 234.6551

EPHEMERIS_TYPE = 0
CLASSIFICATION_TYPE = U
NORAD_CAT_ID   = 66272
ELEMENT_SET_NO = 999
REV_AT_EPOCH   = 404
BSTAR          = -.34061E-1
MEAN_MOTION_DOT = -.1865806E-1
MEAN_MOTION_DDOT = 0

